{
  "languages": [
    {
      "code": "fr-FR",
      "name": "French",
      "nativeName": "FranÃ§ais",
      "flag": "ğŸ‡«ğŸ‡·",
      "region": "europe",
      "tier": 1,
      "speechRecognitionSupport": "full",
      "translationSupport": "full",
      "rtl": false,
      "variants": ["fr-CA", "fr-BE", "fr-CH"]
    },
    {
      "code": "en-US",
      "name": "English (US)",
      "nativeName": "English (US)",
      "flag": "ğŸ‡ºğŸ‡¸",
      "region": "americas",
      "tier": 1,
      "speechRecognitionSupport": "full",
      "translationSupport": "full",
      "rtl": false,
      "variants": ["en-GB", "en-AU", "en-CA", "en-NZ", "en-IE", "en-ZA", "en-IN"]
    },
    {
      "code": "en-GB",
      "name": "English (UK)",
      "nativeName": "English (UK)",
      "flag": "ğŸ‡¬ğŸ‡§",
      "region": "europe",
      "tier": 1,
      "speechRecognitionSupport": "full",
      "translationSupport": "full",
      "rtl": false,
      "variants": []
    },
    {
      "code": "es-ES",
      "name": "Spanish (Spain)",
      "nativeName": "EspaÃ±ol (EspaÃ±a)",
      "flag": "ğŸ‡ªğŸ‡¸",
      "region": "europe",
      "tier": 1,
      "speechRecognitionSupport": "full",
      "translationSupport": "full",
      "rtl": false,
      "variants": ["es-MX", "es-AR", "es-CO", "es-CL", "es-PE", "es-VE"]
    },
    {
      "code": "de-DE",
      "name": "German",
      "nativeName": "Deutsch",
      "flag": "ğŸ‡©ğŸ‡ª",
      "region": "europe",
      "tier": 1,
      "speechRecognitionSupport": "full",
      "translationSupport": "full",
      "rtl": false,
      "variants": ["de-AT", "de-CH"]
    },
    {
      "code": "it-IT",
      "name": "Italian",
      "nativeName": "Italiano",
      "flag": "ğŸ‡®ğŸ‡¹",
      "region": "europe",
      "tier": 1,
      "speechRecognitionSupport": "full",
      "translationSupport": "full",
      "rtl": false,
      "variants": ["it-CH"]
    },
    {
      "code": "pt-BR",
      "name": "Portuguese (Brazil)",
      "nativeName": "PortuguÃªs (Brasil)",
      "flag": "ğŸ‡§ğŸ‡·",
      "region": "americas",
      "tier": 1,
      "speechRecognitionSupport": "full",
      "translationSupport": "full",
      "rtl": false,
      "variants": ["pt-PT"]
    },
    {
      "code": "zh-CN",
      "name": "Chinese (Simplified)",
      "nativeName": "ä¸­æ–‡ (ç®€ä½“)",
      "flag": "ğŸ‡¨ğŸ‡³",
      "region": "asia",
      "tier": 1,
      "speechRecognitionSupport": "full",
      "translationSupport": "full",
      "rtl": false,
      "variants": ["zh-TW", "zh-HK"]
    },
    {
      "code": "ja-JP",
      "name": "Japanese",
      "nativeName": "æ—¥æœ¬èª",
      "flag": "ğŸ‡¯ğŸ‡µ",
      "region": "asia",
      "tier": 1,
      "speechRecognitionSupport": "full",
      "translationSupport": "full",
      "rtl": false,
      "variants": []
    },
    {
      "code": "ko-KR",
      "name": "Korean",
      "nativeName": "í•œêµ­ì–´",
      "flag": "ğŸ‡°ğŸ‡·",
      "region": "asia",
      "tier": 1,
      "speechRecognitionSupport": "full",
      "translationSupport": "full",
      "rtl": false,
      "variants": []
    },
    {
      "code": "ar-SA",
      "name": "Arabic (Saudi Arabia)",
      "nativeName": "Ø§Ù„Ø¹Ø±Ø¨ÙŠØ© (Ø§Ù„Ø³Ø¹ÙˆØ¯ÙŠØ©)",
      "flag": "ğŸ‡¸ğŸ‡¦",
      "region": "middle-east",
      "tier": 1,
      "speechRecognitionSupport": "full",
      "translationSupport": "full",
      "rtl": true,
      "variants": ["ar-EG", "ar-MA", "ar-AE", "ar-KW", "ar-QA", "ar-BH", "ar-OM", "ar-JO", "ar-LB", "ar-SY", "ar-IQ", "ar-DZ", "ar-TN", "ar-LY", "ar-SD", "ar-YE"]
    },
    {
      "code": "ru-RU",
      "name": "Russian",
      "nativeName": "Ğ ÑƒÑÑĞºĞ¸Ğ¹",
      "flag": "ğŸ‡·ğŸ‡º",
      "region": "europe",
      "tier": 1,
      "speechRecognitionSupport": "full",
      "translationSupport": "full",
      "rtl": false,
      "variants": []
    },
    {
      "code": "nl-NL",
      "name": "Dutch",
      "nativeName": "Nederlands",
      "flag": "ğŸ‡³ğŸ‡±",
      "region": "europe",
      "tier": 1,
      "speechRecognitionSupport": "full",
      "translationSupport": "full",
      "rtl": false,
      "variants": ["nl-BE"]
    },
    {
      "code": "pl-PL",
      "name": "Polish",
      "nativeName": "Polski",
      "flag": "ğŸ‡µğŸ‡±",
      "region": "europe",
      "tier": 1,
      "speechRecognitionSupport": "full",
      "translationSupport": "full",
      "rtl": false,
      "variants": []
    },
    {
      "code": "tr-TR",
      "name": "Turkish",
      "nativeName": "TÃ¼rkÃ§e",
      "flag": "ğŸ‡¹ğŸ‡·",
      "region": "europe",
      "tier": 1,
      "speechRecognitionSupport": "full",
      "translationSupport": "full",
      "rtl": false,
      "variants": []
    },
    {
      "code": "cs-CZ",
      "name": "Czech",
      "nativeName": "ÄŒeÅ¡tina",
      "flag": "ğŸ‡¨ğŸ‡¿",
      "region": "europe",
      "tier": 2,
      "speechRecognitionSupport": "full",
      "translationSupport": "full",
      "rtl": false,
      "variants": []
    },
    {
      "code": "da-DK",
      "name": "Danish",
      "nativeName": "Dansk",
      "flag": "ğŸ‡©ğŸ‡°",
      "region": "europe",
      "tier": 2,
      "speechRecognitionSupport": "full",
      "translationSupport": "full",
      "rtl": false,
      "variants": []
    },
    {
      "code": "el-GR",
      "name": "Greek",
      "nativeName": "Î•Î»Î»Î·Î½Î¹ÎºÎ¬",
      "flag": "ğŸ‡¬ğŸ‡·",
      "region": "europe",
      "tier": 2,
      "speechRecognitionSupport": "full",
      "translationSupport": "full",
      "rtl": false,
      "variants": []
    },
    {
      "code": "fi-FI",
      "name": "Finnish",
      "nativeName": "Suomi",
      "flag": "ğŸ‡«ğŸ‡®",
      "region": "europe",
      "tier": 2,
      "speechRecognitionSupport": "full",
      "translationSupport": "full",
      "rtl": false,
      "variants": []
    },
    {
      "code": "hu-HU",
      "name": "Hungarian",
      "nativeName": "Magyar",
      "flag": "ğŸ‡­ğŸ‡º",
      "region": "europe",
      "tier": 2,
      "speechRecognitionSupport": "full",
      "translationSupport": "full",
      "rtl": false,
      "variants": []
    },
    {
      "code": "nb-NO",
      "name": "Norwegian (BokmÃ¥l)",
      "nativeName": "Norsk (BokmÃ¥l)",
      "flag": "ğŸ‡³ğŸ‡´",
      "region": "europe",
      "tier": 2,
      "speechRecognitionSupport": "full",
      "translationSupport": "full",
      "rtl": false,
      "variants": ["nn-NO"]
    },
    {
      "code": "ro-RO",
      "name": "Romanian",
      "nativeName": "RomÃ¢nÄƒ",
      "flag": "ğŸ‡·ğŸ‡´",
      "region": "europe",
      "tier": 2,
      "speechRecognitionSupport": "full",
      "translationSupport": "full",
      "rtl": false,
      "variants": []
    },
    {
      "code": "sk-SK",
      "name": "Slovak",
      "nativeName": "SlovenÄina",
      "flag": "ğŸ‡¸ğŸ‡°",
      "region": "europe",
      "tier": 2,
      "speechRecognitionSupport": "full",
      "translationSupport": "full",
      "rtl": false,
      "variants": []
    },
    {
      "code": "sv-SE",
      "name": "Swedish",
      "nativeName": "Svenska",
      "flag": "ğŸ‡¸ğŸ‡ª",
      "region": "europe",
      "tier": 2,
      "speechRecognitionSupport": "full",
      "translationSupport": "full",
      "rtl": false,
      "variants": []
    },
    {
      "code": "uk-UA",
      "name": "Ukrainian",
      "nativeName": "Ğ£ĞºÑ€Ğ°Ñ—Ğ½ÑÑŒĞºĞ°",
      "flag": "ğŸ‡ºğŸ‡¦",
      "region": "europe",
      "tier": 2,
      "speechRecognitionSupport": "full",
      "translationSupport": "full",
      "rtl": false,
      "variants": []
    },
    {
      "code": "bg-BG",
      "name": "Bulgarian",
      "nativeName": "Ğ‘ÑŠĞ»Ğ³Ğ°Ñ€ÑĞºĞ¸",
      "flag": "ğŸ‡§ğŸ‡¬",
      "region": "europe",
      "tier": 2,
      "speechRecognitionSupport": "full",
      "translationSupport": "full",
      "rtl": false,
      "variants": []
    },
    {
      "code": "hr-HR",
      "name": "Croatian",
      "nativeName": "Hrvatski",
      "flag": "ğŸ‡­ğŸ‡·",
      "region": "europe",
      "tier": 2,
      "speechRecognitionSupport": "full",
      "translationSupport": "full",
      "rtl": false,
      "variants": []
    },
    {
      "code": "et-EE",
      "name": "Estonian",
      "nativeName": "Eesti",
      "flag": "ğŸ‡ªğŸ‡ª",
      "region": "europe",
      "tier": 2,
      "speechRecognitionSupport": "full",
      "translationSupport": "full",
      "rtl": false,
      "variants": []
    },
    {
      "code": "lv-LV",
      "name": "Latvian",
      "nativeName": "LatvieÅ¡u",
      "flag": "ğŸ‡±ğŸ‡»",
      "region": "europe",
      "tier": 2,
      "speechRecognitionSupport": "full",
      "translationSupport": "full",
      "rtl": false,
      "variants": []
    },
    {
      "code": "lt-LT",
      "name": "Lithuanian",
      "nativeName": "LietuviÅ³",
      "flag": "ğŸ‡±ğŸ‡¹",
      "region": "europe",
      "tier": 2,
      "speechRecognitionSupport": "full",
      "translationSupport": "full",
      "rtl": false,
      "variants": []
    },
    {
      "code": "sl-SI",
      "name": "Slovenian",
      "nativeName": "SlovenÅ¡Äina",
      "flag": "ğŸ‡¸ğŸ‡®",
      "region": "europe",
      "tier": 2,
      "speechRecognitionSupport": "full",
      "translationSupport": "full",
      "rtl": false,
      "variants": []
    },
    {
      "code": "sr-RS",
      "name": "Serbian",
      "nativeName": "Ğ¡Ñ€Ğ¿ÑĞºĞ¸",
      "flag": "ğŸ‡·ğŸ‡¸",
      "region": "europe",
      "tier": 2,
      "speechRecognitionSupport": "full",
      "translationSupport": "full",
      "rtl": false,
      "variants": []
    },
    {
      "code": "ca-ES",
      "name": "Catalan",
      "nativeName": "CatalÃ ",
      "flag": "ğŸ‡ªğŸ‡¸",
      "region": "europe",
      "tier": 2,
      "speechRecognitionSupport": "full",
      "translationSupport": "full",
      "rtl": false,
      "variants": []
    },
    {
      "code": "eu-ES",
      "name": "Basque",
      "nativeName": "Euskara",
      "flag": "ğŸ‡ªğŸ‡¸",
      "region": "europe",
      "tier": 2,
      "speechRecognitionSupport": "partial",
      "translationSupport": "full",
      "rtl": false,
      "variants": []
    },
    {
      "code": "gl-ES",
      "name": "Galician",
      "nativeName": "Galego",
      "flag": "ğŸ‡ªğŸ‡¸",
      "region": "europe",
      "tier": 2,
      "speechRecognitionSupport": "partial",
      "translationSupport": "full",
      "rtl": false,
      "variants": []
    },
    {
      "code": "cy-GB",
      "name": "Welsh",
      "nativeName": "Cymraeg",
      "flag": "ğŸ´ó §ó ¢ó ·ó ¬ó ³ó ¿",
      "region": "europe",
      "tier": 2,
      "speechRecognitionSupport": "partial",
      "translationSupport": "full",
      "rtl": false,
      "variants": []
    },
    {
      "code": "ga-IE",
      "name": "Irish",
      "nativeName": "Gaeilge",
      "flag": "ğŸ‡®ğŸ‡ª",
      "region": "europe",
      "tier": 2,
      "speechRecognitionSupport": "partial",
      "translationSupport": "full",
      "rtl": false,
      "variants": []
    },
    {
      "code": "is-IS",
      "name": "Icelandic",
      "nativeName": "Ãslenska",
      "flag": "ğŸ‡®ğŸ‡¸",
      "region": "europe",
      "tier": 2,
      "speechRecognitionSupport": "partial",
      "translationSupport": "full",
      "rtl": false,
      "variants": []
    },
    {
      "code": "mt-MT",
      "name": "Maltese",
      "nativeName": "Malti",
      "flag": "ğŸ‡²ğŸ‡¹",
      "region": "europe",
      "tier": 2,
      "speechRecognitionSupport": "partial",
      "translationSupport": "partial",
      "rtl": false,
      "variants": []
    },
    {
      "code": "sq-AL",
      "name": "Albanian",
      "nativeName": "Shqip",
      "flag": "ğŸ‡¦ğŸ‡±",
      "region": "europe",
      "tier": 2,
      "speechRecognitionSupport": "partial",
      "translationSupport": "full",
      "rtl": false,
      "variants": []
    },
    {
      "code": "zh-TW",
      "name": "Chinese (Traditional)",
      "nativeName": "ä¸­æ–‡ (ç¹é«”)",
      "flag": "ğŸ‡¹ğŸ‡¼",
      "region": "asia",
      "tier": 3,
      "speechRecognitionSupport": "full",
      "translationSupport": "full",
      "rtl": false,
      "variants": []
    },
    {
      "code": "zh-HK",
      "name": "Chinese (Hong Kong)",
      "nativeName": "ä¸­æ–‡ (é¦™æ¸¯)",
      "flag": "ğŸ‡­ğŸ‡°",
      "region": "asia",
      "tier": 3,
      "speechRecognitionSupport": "full",
      "translationSupport": "full",
      "rtl": false,
      "variants": []
    },
    {
      "code": "hi-IN",
      "name": "Hindi",
      "nativeName": "à¤¹à¤¿à¤¨à¥à¤¦à¥€",
      "flag": "ğŸ‡®ğŸ‡³",
      "region": "asia",
      "tier": 3,
      "speechRecognitionSupport": "full",
      "translationSupport": "full",
      "rtl": false,
      "variants": []
    },
    {
      "code": "bn-IN",
      "name": "Bengali",
      "nativeName": "à¦¬à¦¾à¦‚à¦²à¦¾",
      "flag": "ğŸ‡®ğŸ‡³",
      "region": "asia",
      "tier": 3,
      "speechRecognitionSupport": "full",
      "translationSupport": "full",
      "rtl": false,
      "variants": ["bn-BD"]
    },
    {
      "code": "ta-IN",
      "name": "Tamil",
      "nativeName": "à®¤à®®à®¿à®´à¯",
      "flag": "ğŸ‡®ğŸ‡³",
      "region": "asia",
      "tier": 3,
      "speechRecognitionSupport": "full",
      "translationSupport": "full",
      "rtl": false,
      "variants": ["ta-LK", "ta-SG", "ta-MY"]
    },
    {
      "code": "te-IN",
      "name": "Telugu",
      "nativeName": "à°¤à±†à°²à±à°—à±",
      "flag": "ğŸ‡®ğŸ‡³",
      "region": "asia",
      "tier": 3,
      "speechRecognitionSupport": "full",
      "translationSupport": "full",
      "rtl": false,
      "variants": []
    },
    {
      "code": "mr-IN",
      "name": "Marathi",
      "nativeName": "à¤®à¤°à¤¾à¤ à¥€",
      "flag": "ğŸ‡®ğŸ‡³",
      "region": "asia",
      "tier": 3,
      "speechRecognitionSupport": "full",
      "translationSupport": "full",
      "rtl": false,
      "variants": []
    },
    {
      "code": "gu-IN",
      "name": "Gujarati",
      "nativeName": "àª—à«àªœàª°àª¾àª¤à«€",
      "flag": "ğŸ‡®ğŸ‡³",
      "region": "asia",
      "tier": 3,
      "speechRecognitionSupport": "full",
      "translationSupport": "full",
      "rtl": false,
      "variants": []
    },
    {
      "code": "kn-IN",
      "name": "Kannada",
      "nativeName": "à²•à²¨à³à²¨à²¡",
      "flag": "ğŸ‡®ğŸ‡³",
      "region": "asia",
      "tier": 3,
      "speechRecognitionSupport": "full",
      "translationSupport": "full",
      "rtl": false,
      "variants": []
    },
    {
      "code": "ml-IN",
      "name": "Malayalam",
      "nativeName": "à´®à´²à´¯à´¾à´³à´‚",
      "flag": "ğŸ‡®ğŸ‡³",
      "region": "asia",
      "tier": 3,
      "speechRecognitionSupport": "full",
      "translationSupport": "full",
      "rtl": false,
      "variants": []
    },
    {
      "code": "pa-IN",
      "name": "Punjabi",
      "nativeName": "à¨ªà©°à¨œà¨¾à¨¬à©€",
      "flag": "ğŸ‡®ğŸ‡³",
      "region": "asia",
      "tier": 3,
      "speechRecognitionSupport": "partial",
      "translationSupport": "full",
      "rtl": false,
      "variants": ["pa-PK"]
    },
    {
      "code": "th-TH",
      "name": "Thai",
      "nativeName": "à¹„à¸—à¸¢",
      "flag": "ğŸ‡¹ğŸ‡­",
      "region": "asia",
      "tier": 3,
      "speechRecognitionSupport": "full",
      "translationSupport": "full",
      "rtl": false,
      "variants": []
    },
    {
      "code": "vi-VN",
      "name": "Vietnamese",
      "nativeName": "Tiáº¿ng Viá»‡t",
      "flag": "ğŸ‡»ğŸ‡³",
      "region": "asia",
      "tier": 3,
      "speechRecognitionSupport": "full",
      "translationSupport": "full",
      "rtl": false,
      "variants": []
    },
    {
      "code": "id-ID",
      "name": "Indonesian",
      "nativeName": "Bahasa Indonesia",
      "flag": "ğŸ‡®ğŸ‡©",
      "region": "asia",
      "tier": 3,
      "speechRecognitionSupport": "full",
      "translationSupport": "full",
      "rtl": false,
      "variants": []
    },
    {
      "code": "ms-MY",
      "name": "Malay",
      "nativeName": "Bahasa Melayu",
      "flag": "ğŸ‡²ğŸ‡¾",
      "region": "asia",
      "tier": 3,
      "speechRecognitionSupport": "full",
      "translationSupport": "full",
      "rtl": false,
      "variants": ["ms-SG", "ms-BN"]
    },
    {
      "code": "tl-PH",
      "name": "Tagalog",
      "nativeName": "Tagalog",
      "flag": "ğŸ‡µğŸ‡­",
      "region": "asia",
      "tier": 3,
      "speechRecognitionSupport": "full",
      "translationSupport": "full",
      "rtl": false,
      "variants": []
    },
    {
      "code": "my-MM",
      "name": "Burmese",
      "nativeName": "á€™á€¼á€”á€ºá€™á€¬á€˜á€¬á€á€¬",
      "flag": "ğŸ‡²ğŸ‡²",
      "region": "asia",
      "tier": 3,
      "speechRecognitionSupport": "partial",
      "translationSupport": "full",
      "rtl": false,
      "variants": []
    },
    {
      "code": "km-KH",
      "name": "Khmer",
      "nativeName": "á—á¶áŸá¶ááŸ’á˜áŸ‚áš",
      "flag": "ğŸ‡°ğŸ‡­",
      "region": "asia",
      "tier": 3,
      "speechRecognitionSupport": "partial",
      "translationSupport": "full",
      "rtl": false,
      "variants": []
    },
    {
      "code": "lo-LA",
      "name": "Lao",
      "nativeName": "àº¥àº²àº§",
      "flag": "ğŸ‡±ğŸ‡¦",
      "region": "asia",
      "tier": 3,
      "speechRecognitionSupport": "partial",
      "translationSupport": "full",
      "rtl": false,
      "variants": []
    },
    {
      "code": "ne-NP",
      "name": "Nepali",
      "nativeName": "à¤¨à¥‡à¤ªà¤¾à¤²à¥€",
      "flag": "ğŸ‡³ğŸ‡µ",
      "region": "asia",
      "tier": 3,
      "speechRecognitionSupport": "partial",
      "translationSupport": "full",
      "rtl": false,
      "variants": []
    },
    {
      "code": "he-IL",
      "name": "Hebrew",
      "nativeName": "×¢×‘×¨×™×ª",
      "flag": "ğŸ‡®ğŸ‡±",
      "region": "middle-east",
      "tier": 4,
      "speechRecognitionSupport": "full",
      "translationSupport": "full",
      "rtl": true,
      "variants": []
    },
    {
      "code": "fa-IR",
      "name": "Persian",
      "nativeName": "ÙØ§Ø±Ø³ÛŒ",
      "flag": "ğŸ‡®ğŸ‡·",
      "region": "middle-east",
      "tier": 4,
      "speechRecognitionSupport": "full",
      "translationSupport": "full",
      "rtl": true,
      "variants": ["fa-AF"]
    },
    {
      "code": "ur-PK",
      "name": "Urdu",
      "nativeName": "Ø§Ø±Ø¯Ùˆ",
      "flag": "ğŸ‡µğŸ‡°",
      "region": "asia",
      "tier": 4,
      "speechRecognitionSupport": "full",
      "translationSupport": "full",
      "rtl": true,
      "variants": ["ur-IN"]
    },
    {
      "code": "ar-EG",
      "name": "Arabic (Egypt)",
      "nativeName": "Ø§Ù„Ø¹Ø±Ø¨ÙŠØ© (Ù…ØµØ±)",
      "flag": "ğŸ‡ªğŸ‡¬",
      "region": "middle-east",
      "tier": 4,
      "speechRecognitionSupport": "full",
      "translationSupport": "full",
      "rtl": true,
      "variants": []
    },
    {
      "code": "ar-MA",
      "name": "Arabic (Morocco)",
      "nativeName": "Ø§Ù„Ø¹Ø±Ø¨ÙŠØ© (Ø§Ù„Ù…ØºØ±Ø¨)",
      "flag": "ğŸ‡²ğŸ‡¦",
      "region": "africa",
      "tier": 4,
      "speechRecognitionSupport": "full",
      "translationSupport": "full",
      "rtl": true,
      "variants": []
    },
    {
      "code": "ar-AE",
      "name": "Arabic (UAE)",
      "nativeName": "Ø§Ù„Ø¹Ø±Ø¨ÙŠØ© (Ø§Ù„Ø¥Ù…Ø§Ø±Ø§Øª)",
      "flag": "ğŸ‡¦ğŸ‡ª",
      "region": "middle-east",
      "tier": 4,
      "speechRecognitionSupport": "full",
      "translationSupport": "full",
      "rtl": true,
      "variants": []
    },
    {
      "code": "sw-KE",
      "name": "Swahili",
      "nativeName": "Kiswahili",
      "flag": "ğŸ‡°ğŸ‡ª",
      "region": "africa",
      "tier": 4,
      "speechRecognitionSupport": "full",
      "translationSupport": "full",
      "rtl": false,
      "variants": ["sw-TZ"]
    },
    {
      "code": "am-ET",
      "name": "Amharic",
      "nativeName": "áŠ áˆ›áˆ­áŠ›",
      "flag": "ğŸ‡ªğŸ‡¹",
      "region": "africa",
      "tier": 4,
      "speechRecognitionSupport": "partial",
      "translationSupport": "full",
      "rtl": false,
      "variants": []
    },
    {
      "code": "ha-NG",
      "name": "Hausa",
      "nativeName": "Hausa",
      "flag": "ğŸ‡³ğŸ‡¬",
      "region": "africa",
      "tier": 4,
      "speechRecognitionSupport": "partial",
      "translationSupport": "partial",
      "rtl": false,
      "variants": []
    },
    {
      "code": "yo-NG",
      "name": "Yoruba",
      "nativeName": "YorÃ¹bÃ¡",
      "flag": "ğŸ‡³ğŸ‡¬",
      "region": "africa",
      "tier": 4,
      "speechRecognitionSupport": "partial",
      "translationSupport": "partial",
      "rtl": false,
      "variants": []
    },
    {
      "code": "ig-NG",
      "name": "Igbo",
      "nativeName": "Igbo",
      "flag": "ğŸ‡³ğŸ‡¬",
      "region": "africa",
      "tier": 4,
      "speechRecognitionSupport": "partial",
      "translationSupport": "partial",
      "rtl": false,
      "variants": []
    },
    {
      "code": "zu-ZA",
      "name": "Zulu",
      "nativeName": "isiZulu",
      "flag": "ğŸ‡¿ğŸ‡¦",
      "region": "africa",
      "tier": 4,
      "speechRecognitionSupport": "partial",
      "translationSupport": "full",
      "rtl": false,
      "variants": []
    },
    {
      "code": "xh-ZA",
      "name": "Xhosa",
      "nativeName": "isiXhosa",
      "flag": "ğŸ‡¿ğŸ‡¦",
      "region": "africa",
      "tier": 4,
      "speechRecognitionSupport": "partial",
      "translationSupport": "partial",
      "rtl": false,
      "variants": []
    },
    {
      "code": "af-ZA",
      "name": "Afrikaans",
      "nativeName": "Afrikaans",
      "flag": "ğŸ‡¿ğŸ‡¦",
      "region": "africa",
      "tier": 4,
      "speechRecognitionSupport": "full",
      "translationSupport": "full",
      "rtl": false,
      "variants": []
    },
    {
      "code": "so-SO",
      "name": "Somali",
      "nativeName": "Soomaali",
      "flag": "ğŸ‡¸ğŸ‡´",
      "region": "africa",
      "tier": 4,
      "speechRecognitionSupport": "partial",
      "translationSupport": "partial",
      "rtl": false,
      "variants": []
    },
    {
      "code": "rw-RW",
      "name": "Kinyarwanda",
      "nativeName": "Ikinyarwanda",
      "flag": "ğŸ‡·ğŸ‡¼",
      "region": "africa",
      "tier": 4,
      "speechRecognitionSupport": "partial",
      "translationSupport": "partial",
      "rtl": false,
      "variants": []
    },
    {
      "code": "ti-ET",
      "name": "Tigrinya",
      "nativeName": "á‰µáŒáˆ­áŠ›",
      "flag": "ğŸ‡ªğŸ‡¹",
      "region": "africa",
      "tier": 4,
      "speechRecognitionSupport": "partial",
      "translationSupport": "partial",
      "rtl": false,
      "variants": ["ti-ER"]
    },
    {
      "code": "ps-AF",
      "name": "Pashto",
      "nativeName": "Ù¾ÚšØªÙˆ",
      "flag": "ğŸ‡¦ğŸ‡«",
      "region": "asia",
      "tier": 4,
      "speechRecognitionSupport": "partial",
      "translationSupport": "full",
      "rtl": true,
      "variants": []
    },
    {
      "code": "ku-TR",
      "name": "Kurdish",
      "nativeName": "KurdÃ®",
      "flag": "ğŸ‡¹ğŸ‡·",
      "region": "middle-east",
      "tier": 4,
      "speechRecognitionSupport": "partial",
      "translationSupport": "partial",
      "rtl": false,
      "variants": ["ku-IQ"]
    },
    {
      "code": "fr-CA",
      "name": "French (Canada)",
      "nativeName": "FranÃ§ais (Canada)",
      "flag": "ğŸ‡¨ğŸ‡¦",
      "region": "americas",
      "tier": 5,
      "speechRecognitionSupport": "full",
      "translationSupport": "full",
      "rtl": false,
      "variants": []
    },
    {
      "code": "fr-BE",
      "name": "French (Belgium)",
      "nativeName": "FranÃ§ais (Belgique)",
      "flag": "ğŸ‡§ğŸ‡ª",
      "region": "europe",
      "tier": 5,
      "speechRecognitionSupport": "full",
      "translationSupport": "full",
      "rtl": false,
      "variants": []
    },
    {
      "code": "fr-CH",
      "name": "French (Switzerland)",
      "nativeName": "FranÃ§ais (Suisse)",
      "flag": "ğŸ‡¨ğŸ‡­",
      "region": "europe",
      "tier": 5,
      "speechRecognitionSupport": "full",
      "translationSupport": "full",
      "rtl": false,
      "variants": []
    },
    {
      "code": "en-AU",
      "name": "English (Australia)",
      "nativeName": "English (Australia)",
      "flag": "ğŸ‡¦ğŸ‡º",
      "region": "oceania",
      "tier": 5,
      "speechRecognitionSupport": "full",
      "translationSupport": "full",
      "rtl": false,
      "variants": []
    },
    {
      "code": "en-CA",
      "name": "English (Canada)",
      "nativeName": "English (Canada)",
      "flag": "ğŸ‡¨ğŸ‡¦",
      "region": "americas",
      "tier": 5,
      "speechRecognitionSupport": "full",
      "translationSupport": "full",
      "rtl": false,
      "variants": []
    },
    {
      "code": "en-NZ",
      "name": "English (New Zealand)",
      "nativeName": "English (New Zealand)",
      "flag": "ğŸ‡³ğŸ‡¿",
      "region": "oceania",
      "tier": 5,
      "speechRecognitionSupport": "full",
      "translationSupport": "full",
      "rtl": false,
      "variants": []
    },
    {
      "code": "en-IE",
      "name": "English (Ireland)",
      "nativeName": "English (Ireland)",
      "flag": "ğŸ‡®ğŸ‡ª",
      "region": "europe",
      "tier": 5,
      "speechRecognitionSupport": "full",
      "translationSupport": "full",
      "rtl": false,
      "variants": []
    },
    {
      "code": "en-ZA",
      "name": "English (South Africa)",
      "nativeName": "English (South Africa)",
      "flag": "ğŸ‡¿ğŸ‡¦",
      "region": "africa",
      "tier": 5,
      "speechRecognitionSupport": "full",
      "translationSupport": "full",
      "rtl": false,
      "variants": []
    },
    {
      "code": "en-IN",
      "name": "English (India)",
      "nativeName": "English (India)",
      "flag": "ğŸ‡®ğŸ‡³",
      "region": "asia",
      "tier": 5,
      "speechRecognitionSupport": "full",
      "translationSupport": "full",
      "rtl": false,
      "variants": []
    },
    {
      "code": "es-MX",
      "name": "Spanish (Mexico)",
      "nativeName": "EspaÃ±ol (MÃ©xico)",
      "flag": "ğŸ‡²ğŸ‡½",
      "region": "americas",
      "tier": 5,
      "speechRecognitionSupport": "full",
      "translationSupport": "full",
      "rtl": false,
      "variants": []
    },
    {
      "code": "es-AR",
      "name": "Spanish (Argentina)",
      "nativeName": "EspaÃ±ol (Argentina)",
      "flag": "ğŸ‡¦ğŸ‡·",
      "region": "americas",
      "tier": 5,
      "speechRecognitionSupport": "full",
      "translationSupport": "full",
      "rtl": false,
      "variants": []
    },
    {
      "code": "es-CO",
      "name": "Spanish (Colombia)",
      "nativeName": "EspaÃ±ol (Colombia)",
      "flag": "ğŸ‡¨ğŸ‡´",
      "region": "americas",
      "tier": 5,
      "speechRecognitionSupport": "full",
      "translationSupport": "full",
      "rtl": false,
      "variants": []
    },
    {
      "code": "es-CL",
      "name": "Spanish (Chile)",
      "nativeName": "EspaÃ±ol (Chile)",
      "flag": "ğŸ‡¨ğŸ‡±",
      "region": "americas",
      "tier": 5,
      "speechRecognitionSupport": "full",
      "translationSupport": "full",
      "rtl": false,
      "variants": []
    },
    {
      "code": "es-PE",
      "name": "Spanish (Peru)",
      "nativeName": "EspaÃ±ol (PerÃº)",
      "flag": "ğŸ‡µğŸ‡ª",
      "region": "americas",
      "tier": 5,
      "speechRecognitionSupport": "full",
      "translationSupport": "full",
      "rtl": false,
      "variants": []
    },
    {
      "code": "es-VE",
      "name": "Spanish (Venezuela)",
      "nativeName": "EspaÃ±ol (Venezuela)",
      "flag": "ğŸ‡»ğŸ‡ª",
      "region": "americas",
      "tier": 5,
      "speechRecognitionSupport": "full",
      "translationSupport": "full",
      "rtl": false,
      "variants": []
    },
    {
      "code": "de-AT",
      "name": "German (Austria)",
      "nativeName": "Deutsch (Ã–sterreich)",
      "flag": "ğŸ‡¦ğŸ‡¹",
      "region": "europe",
      "tier": 5,
      "speechRecognitionSupport": "full",
      "translationSupport": "full",
      "rtl": false,
      "variants": []
    },
    {
      "code": "de-CH",
      "name": "German (Switzerland)",
      "nativeName": "Deutsch (Schweiz)",
      "flag": "ğŸ‡¨ğŸ‡­",
      "region": "europe",
      "tier": 5,
      "speechRecognitionSupport": "full",
      "translationSupport": "full",
      "rtl": false,
      "variants": []
    },
    {
      "code": "pt-PT",
      "name": "Portuguese (Portugal)",
      "nativeName": "PortuguÃªs (Portugal)",
      "flag": "ğŸ‡µğŸ‡¹",
      "region": "europe",
      "tier": 5,
      "speechRecognitionSupport": "full",
      "translationSupport": "full",
      "rtl": false,
      "variants": []
    },
    {
      "code": "nl-BE",
      "name": "Dutch (Belgium)",
      "nativeName": "Nederlands (BelgiÃ«)",
      "flag": "ğŸ‡§ğŸ‡ª",
      "region": "europe",
      "tier": 5,
      "speechRecognitionSupport": "full",
      "translationSupport": "full",
      "rtl": false,
      "variants": []
    },
    {
      "code": "ka-GE",
      "name": "Georgian",
      "nativeName": "áƒ¥áƒáƒ áƒ—áƒ£áƒšáƒ˜",
      "flag": "ğŸ‡¬ğŸ‡ª",
      "region": "europe",
      "tier": 5,
      "speechRecognitionSupport": "partial",
      "translationSupport": "full",
      "rtl": false,
      "variants": []
    },
    {
      "code": "hy-AM",
      "name": "Armenian",
      "nativeName": "Õ€Õ¡Õµdelays",
      "flag": "ğŸ‡¦ğŸ‡²",
      "region": "europe",
      "tier": 5,
      "speechRecognitionSupport": "partial",
      "translationSupport": "full",
      "rtl": false,
      "variants": []
    },
    {
      "code": "az-AZ",
      "name": "Azerbaijani",
      "nativeName": "AzÉ™rbaycan",
      "flag": "ğŸ‡¦ğŸ‡¿",
      "region": "asia",
      "tier": 5,
      "speechRecognitionSupport": "partial",
      "translationSupport": "full",
      "rtl": false,
      "variants": []
    },
    {
      "code": "kk-KZ",
      "name": "Kazakh",
      "nativeName": "ÒšĞ°Ğ·Ğ°Ò›",
      "flag": "ğŸ‡°ğŸ‡¿",
      "region": "asia",
      "tier": 5,
      "speechRecognitionSupport": "partial",
      "translationSupport": "full",
      "rtl": false,
      "variants": []
    },
    {
      "code": "uz-UZ",
      "name": "Uzbek",
      "nativeName": "O'zbek",
      "flag": "ğŸ‡ºğŸ‡¿",
      "region": "asia",
      "tier": 5,
      "speechRecognitionSupport": "partial",
      "translationSupport": "full",
      "rtl": false,
      "variants": []
    },
    {
      "code": "tg-TJ",
      "name": "Tajik",
      "nativeName": "Ğ¢Ğ¾Ò·Ğ¸ĞºÓ£",
      "flag": "ğŸ‡¹ğŸ‡¯",
      "region": "asia",
      "tier": 5,
      "speechRecognitionSupport": "partial",
      "translationSupport": "partial",
      "rtl": false,
      "variants": []
    },
    {
      "code": "ky-KG",
      "name": "Kyrgyz",
      "nativeName": "ĞšÑ‹Ñ€Ğ³Ñ‹Ğ·Ñ‡Ğ°",
      "flag": "ğŸ‡°ğŸ‡¬",
      "region": "asia",
      "tier": 5,
      "speechRecognitionSupport": "partial",
      "translationSupport": "partial",
      "rtl": false,
      "variants": []
    },
    {
      "code": "tk-TM",
      "name": "Turkmen",
      "nativeName": "TÃ¼rkmenÃ§e",
      "flag": "ğŸ‡¹ğŸ‡²",
      "region": "asia",
      "tier": 5,
      "speechRecognitionSupport": "partial",
      "translationSupport": "partial",
      "rtl": false,
      "variants": []
    },
    {
      "code": "mn-MN",
      "name": "Mongolian",
      "nativeName": "ĞœĞ¾Ğ½Ğ³Ğ¾Ğ»",
      "flag": "ğŸ‡²ğŸ‡³",
      "region": "asia",
      "tier": 5,
      "speechRecognitionSupport": "partial",
      "translationSupport": "full",
      "rtl": false,
      "variants": []
    },
    {
      "code": "si-LK",
      "name": "Sinhala",
      "nativeName": "à·ƒà·’à¶‚à·„à¶½",
      "flag": "ğŸ‡±ğŸ‡°",
      "region": "asia",
      "tier": 5,
      "speechRecognitionSupport": "partial",
      "translationSupport": "full",
      "rtl": false,
      "variants": []
    },
    {
      "code": "bn-BD",
      "name": "Bengali (Bangladesh)",
      "nativeName": "à¦¬à¦¾à¦‚à¦²à¦¾ (à¦¬à¦¾à¦‚à¦²à¦¾à¦¦à§‡à¦¶)",
      "flag": "ğŸ‡§ğŸ‡©",
      "region": "asia",
      "tier": 5,
      "speechRecognitionSupport": "full",
      "translationSupport": "full",
      "rtl": false,
      "variants": []
    },
    {
      "code": "or-IN",
      "name": "Odia",
      "nativeName": "à¬“à¬¡à¬¼à¬¿à¬†",
      "flag": "ğŸ‡®ğŸ‡³",
      "region": "asia",
      "tier": 5,
      "speechRecognitionSupport": "partial",
      "translationSupport": "full",
      "rtl": false,
      "variants": []
    },
    {
      "code": "as-IN",
      "name": "Assamese",
      "nativeName": "à¦…à¦¸à¦®à§€à¦¯à¦¼à¦¾",
      "flag": "ğŸ‡®ğŸ‡³",
      "region": "asia",
      "tier": 5,
      "speechRecognitionSupport": "partial",
      "translationSupport": "partial",
      "rtl": false,
      "variants": []
    },
    {
      "code": "sd-PK",
      "name": "Sindhi",
      "nativeName": "Ø³Ù†ÚŒÙŠ",
      "flag": "ğŸ‡µğŸ‡°",
      "region": "asia",
      "tier": 5,
      "speechRecognitionSupport": "partial",
      "translationSupport": "partial",
      "rtl": true,
      "variants": []
    },
    {
      "code": "ks-IN",
      "name": "Kashmiri",
      "nativeName": "Ú©Ù²Ø´ÙØ±",
      "flag": "ğŸ‡®ğŸ‡³",
      "region": "asia",
      "tier": 5,
      "speechRecognitionSupport": "partial",
      "translationSupport": "partial",
      "rtl": true,
      "variants": []
    },
    {
      "code": "doi-IN",
      "name": "Dogri",
      "nativeName": "à¤¡à¥‹à¤—à¤°à¥€",
      "flag": "ğŸ‡®ğŸ‡³",
      "region": "asia",
      "tier": 5,
      "speechRecognitionSupport": "partial",
      "translationSupport": "partial",
      "rtl": false,
      "variants": []
    },
    {
      "code": "mai-IN",
      "name": "Maithili",
      "nativeName": "à¤®à¥ˆà¤¥à¤¿à¤²à¥€",
      "flag": "ğŸ‡®ğŸ‡³",
      "region": "asia",
      "tier": 5,
      "speechRecognitionSupport": "partial",
      "translationSupport": "partial",
      "rtl": false,
      "variants": []
    },
    {
      "code": "sat-IN",
      "name": "Santali",
      "nativeName": "á±¥á±Ÿá±±á±›á±Ÿá±²á±¤",
      "flag": "ğŸ‡®ğŸ‡³",
      "region": "asia",
      "tier": 5,
      "speechRecognitionSupport": "partial",
      "translationSupport": "partial",
      "rtl": false,
      "variants": []
    },
    {
      "code": "bho-IN",
      "name": "Bhojpuri",
      "nativeName": "à¤­à¥‹à¤œà¤ªà¥à¤°à¥€",
      "flag": "ğŸ‡®ğŸ‡³",
      "region": "asia",
      "tier": 5,
      "speechRecognitionSupport": "partial",
      "translationSupport": "partial",
      "rtl": false,
      "variants": []
    },
    {
      "code": "fil-PH",
      "name": "Filipino",
      "nativeName": "Filipino",
      "flag": "ğŸ‡µğŸ‡­",
      "region": "asia",
      "tier": 5,
      "speechRecognitionSupport": "full",
      "translationSupport": "full",
      "rtl": false,
      "variants": []
    },
    {
      "code": "ceb-PH",
      "name": "Cebuano",
      "nativeName": "Cebuano",
      "flag": "ğŸ‡µğŸ‡­",
      "region": "asia",
      "tier": 5,
      "speechRecognitionSupport": "partial",
      "translationSupport": "partial",
      "rtl": false,
      "variants": []
    },
    {
      "code": "jv-ID",
      "name": "Javanese",
      "nativeName": "Basa Jawa",
      "flag": "ğŸ‡®ğŸ‡©",
      "region": "asia",
      "tier": 5,
      "speechRecognitionSupport": "partial",
      "translationSupport": "partial",
      "rtl": false,
      "variants": []
    },
    {
      "code": "su-ID",
      "name": "Sundanese",
      "nativeName": "Basa Sunda",
      "flag": "ğŸ‡®ğŸ‡©",
      "region": "asia",
      "tier": 5,
      "speechRecognitionSupport": "partial",
      "translationSupport": "partial",
      "rtl": false,
      "variants": []
    },
    {
      "code": "mg-MG",
      "name": "Malagasy",
      "nativeName": "Malagasy",
      "flag": "ğŸ‡²ğŸ‡¬",
      "region": "africa",
      "tier": 5,
      "speechRecognitionSupport": "partial",
      "translationSupport": "partial",
      "rtl": false,
      "variants": []
    },
    {
      "code": "ny-MW",
      "name": "Chichewa",
      "nativeName": "Chichewa",
      "flag": "ğŸ‡²ğŸ‡¼",
      "region": "africa",
      "tier": 5,
      "speechRecognitionSupport": "partial",
      "translationSupport": "partial",
      "rtl": false,
      "variants": []
    },
    {
      "code": "sn-ZW",
      "name": "Shona",
      "nativeName": "chiShona",
      "flag": "ğŸ‡¿ğŸ‡¼",
      "region": "africa",
      "tier": 5,
      "speechRecognitionSupport": "partial",
      "translationSupport": "partial",
      "rtl": false,
      "variants": []
    },
    {
      "code": "st-ZA",
      "name": "Sesotho",
      "nativeName": "Sesotho",
      "flag": "ğŸ‡¿ğŸ‡¦",
      "region": "africa",
      "tier": 5,
      "speechRecognitionSupport": "partial",
      "translationSupport": "partial",
      "rtl": false,
      "variants": []
    },
    {
      "code": "tn-ZA",
      "name": "Setswana",
      "nativeName": "Setswana",
      "flag": "ğŸ‡¿ğŸ‡¦",
      "region": "africa",
      "tier": 5,
      "speechRecognitionSupport": "partial",
      "translationSupport": "partial",
      "rtl": false,
      "variants": []
    },
    {
      "code": "ts-ZA",
      "name": "Tsonga",
      "nativeName": "Xitsonga",
      "flag": "ğŸ‡¿ğŸ‡¦",
      "region": "africa",
      "tier": 5,
      "speechRecognitionSupport": "partial",
      "translationSupport": "partial",
      "rtl": false,
      "variants": []
    },
    {
      "code": "ss-ZA",
      "name": "Swati",
      "nativeName": "siSwati",
      "flag": "ğŸ‡¿ğŸ‡¦",
      "region": "africa",
      "tier": 5,
      "speechRecognitionSupport": "partial",
      "translationSupport": "partial",
      "rtl": false,
      "variants": []
    },
    {
      "code": "ve-ZA",
      "name": "Venda",
      "nativeName": "Tshivená¸“a",
      "flag": "ğŸ‡¿ğŸ‡¦",
      "region": "africa",
      "tier": 5,
      "speechRecognitionSupport": "partial",
      "translationSupport": "partial",
      "rtl": false,
      "variants": []
    },
    {
      "code": "nr-ZA",
      "name": "Southern Ndebele",
      "nativeName": "isiNdebele",
      "flag": "ğŸ‡¿ğŸ‡¦",
      "region": "africa",
      "tier": 5,
      "speechRecognitionSupport": "partial",
      "translationSupport": "partial",
      "rtl": false,
      "variants": []
    },
    {
      "code": "lg-UG",
      "name": "Luganda",
      "nativeName": "Luganda",
      "flag": "ğŸ‡ºğŸ‡¬",
      "region": "africa",
      "tier": 5,
      "speechRecognitionSupport": "partial",
      "translationSupport": "partial",
      "rtl": false,
      "variants": []
    },
    {
      "code": "om-ET",
      "name": "Oromo",
      "nativeName": "Oromoo",
      "flag": "ğŸ‡ªğŸ‡¹",
      "region": "africa",
      "tier": 5,
      "speechRecognitionSupport": "partial",
      "translationSupport": "partial",
      "rtl": false,
      "variants": []
    },
    {
      "code": "wo-SN",
      "name": "Wolof",
      "nativeName": "Wolof",
      "flag": "ğŸ‡¸ğŸ‡³",
      "region": "africa",
      "tier": 5,
      "speechRecognitionSupport": "partial",
      "translationSupport": "partial",
      "rtl": false,
      "variants": []
    },
    {
      "code": "ff-SN",
      "name": "Fulah",
      "nativeName": "Fulfulde",
      "flag": "ğŸ‡¸ğŸ‡³",
      "region": "africa",
      "tier": 5,
      "speechRecognitionSupport": "partial",
      "translationSupport": "partial",
      "rtl": false,
      "variants": []
    },
    {
      "code": "bm-ML",
      "name": "Bambara",
      "nativeName": "Bamanankan",
      "flag": "ğŸ‡²ğŸ‡±",
      "region": "africa",
      "tier": 5,
      "speechRecognitionSupport": "partial",
      "translationSupport": "partial",
      "rtl": false,
      "variants": []
    },
    {
      "code": "ln-CD",
      "name": "Lingala",
      "nativeName": "LingÃ¡la",
      "flag": "ğŸ‡¨ğŸ‡©",
      "region": "africa",
      "tier": 5,
      "speechRecognitionSupport": "partial",
      "translationSupport": "partial",
      "rtl": false,
      "variants": []
    },
    {
      "code": "lb-LU",
      "name": "Luxembourgish",
      "nativeName": "LÃ«tzebuergesch",
      "flag": "ğŸ‡±ğŸ‡º",
      "region": "europe",
      "tier": 5,
      "speechRecognitionSupport": "partial",
      "translationSupport": "partial",
      "rtl": false,
      "variants": []
    },
    {
      "code": "mk-MK",
      "name": "Macedonian",
      "nativeName": "ĞœĞ°ĞºĞµĞ´Ğ¾Ğ½ÑĞºĞ¸",
      "flag": "ğŸ‡²ğŸ‡°",
      "region": "europe",
      "tier": 5,
      "speechRecognitionSupport": "partial",
      "translationSupport": "full",
      "rtl": false,
      "variants": []
    },
    {
      "code": "bs-BA",
      "name": "Bosnian",
      "nativeName": "Bosanski",
      "flag": "ğŸ‡§ğŸ‡¦",
      "region": "europe",
      "tier": 5,
      "speechRecognitionSupport": "partial",
      "translationSupport": "full",
      "rtl": false,
      "variants": []
    },
    {
      "code": "be-BY",
      "name": "Belarusian",
      "nativeName": "Ğ‘ĞµĞ»Ğ°Ñ€ÑƒÑĞºĞ°Ñ",
      "flag": "ğŸ‡§ğŸ‡¾",
      "region": "europe",
      "tier": 5,
      "speechRecognitionSupport": "partial",
      "translationSupport": "full",
      "rtl": false,
      "variants": []
    },
    {
      "code": "nn-NO",
      "name": "Norwegian (Nynorsk)",
      "nativeName": "Norsk (Nynorsk)",
      "flag": "ğŸ‡³ğŸ‡´",
      "region": "europe",
      "tier": 5,
      "speechRecognitionSupport": "partial",
      "translationSupport": "full",
      "rtl": false,
      "variants": []
    },
    {
      "code": "fo-FO",
      "name": "Faroese",
      "nativeName": "FÃ¸royskt",
      "flag": "ğŸ‡«ğŸ‡´",
      "region": "europe",
      "tier": 5,
      "speechRecognitionSupport": "partial",
      "translationSupport": "partial",
      "rtl": false,
      "variants": []
    },
    {
      "code": "gd-GB",
      "name": "Scottish Gaelic",
      "nativeName": "GÃ idhlig",
      "flag": "ğŸ´ó §ó ¢ó ³ó £ó ´ó ¿",
      "region": "europe",
      "tier": 5,
      "speechRecognitionSupport": "partial",
      "translationSupport": "partial",
      "rtl": false,
      "variants": []
    },
    {
      "code": "br-FR",
      "name": "Breton",
      "nativeName": "Brezhoneg",
      "flag": "ğŸ‡«ğŸ‡·",
      "region": "europe",
      "tier": 5,
      "speechRecognitionSupport": "partial",
      "translationSupport": "partial",
      "rtl": false,
      "variants": []
    },
    {
      "code": "co-FR",
      "name": "Corsican",
      "nativeName": "Corsu",
      "flag": "ğŸ‡«ğŸ‡·",
      "region": "europe",
      "tier": 5,
      "speechRecognitionSupport": "partial",
      "translationSupport": "partial",
      "rtl": false,
      "variants": []
    },
    {
      "code": "oc-FR",
      "name": "Occitan",
      "nativeName": "Occitan",
      "flag": "ğŸ‡«ğŸ‡·",
      "region": "europe",
      "tier": 5,
      "speechRecognitionSupport": "partial",
      "translationSupport": "partial",
      "rtl": false,
      "variants": []
    },
    {
      "code": "rm-CH",
      "name": "Romansh",
      "nativeName": "Rumantsch",
      "flag": "ğŸ‡¨ğŸ‡­",
      "region": "europe",
      "tier": 5,
      "speechRecognitionSupport": "partial",
      "translationSupport": "partial",
      "rtl": false,
      "variants": []
    },
    {
      "code": "sc-IT",
      "name": "Sardinian",
      "nativeName": "Sardu",
      "flag": "ğŸ‡®ğŸ‡¹",
      "region": "europe",
      "tier": 5,
      "speechRecognitionSupport": "partial",
      "translationSupport": "partial",
      "rtl": false,
      "variants": []
    },
    {
      "code": "fy-NL",
      "name": "Frisian",
      "nativeName": "Frysk",
      "flag": "ğŸ‡³ğŸ‡±",
      "region": "europe",
      "tier": 5,
      "speechRecognitionSupport": "partial",
      "translationSupport": "partial",
      "rtl": false,
      "variants": []
    },
    {
      "code": "yi",
      "name": "Yiddish",
      "nativeName": "×™×™Ö´×“×™×©",
      "flag": "ğŸ‡®ğŸ‡±",
      "region": "europe",
      "tier": 5,
      "speechRecognitionSupport": "partial",
      "translationSupport": "full",
      "rtl": true,
      "variants": []
    },
    {
      "code": "la",
      "name": "Latin",
      "nativeName": "Latina",
      "flag": "ğŸ›ï¸",
      "region": "europe",
      "tier": 5,
      "speechRecognitionSupport": "none",
      "translationSupport": "full",
      "rtl": false,
      "variants": []
    },
    {
      "code": "eo",
      "name": "Esperanto",
      "nativeName": "Esperanto",
      "flag": "ğŸŒ",
      "region": "europe",
      "tier": 5,
      "speechRecognitionSupport": "partial",
      "translationSupport": "full",
      "rtl": false,
      "variants": []
    },
    {
      "code": "haw-US",
      "name": "Hawaiian",
      "nativeName": "Ê»ÅŒlelo HawaiÊ»i",
      "flag": "ğŸ‡ºğŸ‡¸",
      "region": "oceania",
      "tier": 5,
      "speechRecognitionSupport": "partial",
      "translationSupport": "partial",
      "rtl": false,
      "variants": []
    },
    {
      "code": "mi-NZ",
      "name": "MÄori",
      "nativeName": "Te Reo MÄori",
      "flag": "ğŸ‡³ğŸ‡¿",
      "region": "oceania",
      "tier": 5,
      "speechRecognitionSupport": "partial",
      "translationSupport": "partial",
      "rtl": false,
      "variants": []
    },
    {
      "code": "sm-WS",
      "name": "Samoan",
      "nativeName": "Gagana Samoa",
      "flag": "ğŸ‡¼ğŸ‡¸",
      "region": "oceania",
      "tier": 5,
      "speechRecognitionSupport": "partial",
      "translationSupport": "partial",
      "rtl": false,
      "variants": []
    },
    {
      "code": "to-TO",
      "name": "Tongan",
      "nativeName": "Lea Faka-Tonga",
      "flag": "ğŸ‡¹ğŸ‡´",
      "region": "oceania",
      "tier": 5,
      "speechRecognitionSupport": "partial",
      "translationSupport": "partial",
      "rtl": false,
      "variants": []
    },
    {
      "code": "fj-FJ",
      "name": "Fijian",
      "nativeName": "Vosa Vakaviti",
      "flag": "ğŸ‡«ğŸ‡¯",
      "region": "oceania",
      "tier": 5,
      "speechRecognitionSupport": "partial",
      "translationSupport": "partial",
      "rtl": false,
      "variants": []
    },
    {
      "code": "ht-HT",
      "name": "Haitian Creole",
      "nativeName": "KreyÃ²l Ayisyen",
      "flag": "ğŸ‡­ğŸ‡¹",
      "region": "americas",
      "tier": 5,
      "speechRecognitionSupport": "partial",
      "translationSupport": "full",
      "rtl": false,
      "variants": []
    },
    {
      "code": "qu-PE",
      "name": "Quechua",
      "nativeName": "Runasimi",
      "flag": "ğŸ‡µğŸ‡ª",
      "region": "americas",
      "tier": 5,
      "speechRecognitionSupport": "partial",
      "translationSupport": "partial",
      "rtl": false,
      "variants": []
    },
    {
      "code": "ay-BO",
      "name": "Aymara",
      "nativeName": "Aymar Aru",
      "flag": "ğŸ‡§ğŸ‡´",
      "region": "americas",
      "tier": 5,
      "speechRecognitionSupport": "partial",
      "translationSupport": "partial",
      "rtl": false,
      "variants": []
    },
    {
      "code": "gn-PY",
      "name": "Guarani",
      "nativeName": "AvaÃ±e'áº½",
      "flag": "ğŸ‡µğŸ‡¾",
      "region": "americas",
      "tier": 5,
      "speechRecognitionSupport": "partial",
      "translationSupport": "partial",
      "rtl": false,
      "variants": []
    },
    {
      "code": "nah-MX",
      "name": "Nahuatl",
      "nativeName": "NÄhuatl",
      "flag": "ğŸ‡²ğŸ‡½",
      "region": "americas",
      "tier": 5,
      "speechRecognitionSupport": "partial",
      "translationSupport": "partial",
      "rtl": false,
      "variants": []
    }
  ],
  "regions": [
    { "id": "europe", "name": "Europe", "icon": "ğŸŒ" },
    { "id": "americas", "name": "AmÃ©riques", "icon": "ğŸŒ" },
    { "id": "asia", "name": "Asie", "icon": "ğŸŒ" },
    { "id": "middle-east", "name": "Moyen-Orient", "icon": "ğŸ•Œ" },
    { "id": "africa", "name": "Afrique", "icon": "ğŸŒ" },
    { "id": "oceania", "name": "OcÃ©anie", "icon": "ğŸï¸" }
  ]
}
